start=new Date('2022-09-15T00:00:00.000Z').valueOf();
sats=[{"MEAN_MOTION_DDOT":"0.0000000000000","GP_ID":"212614720","PERIAPSIS":"538.541","BSTAR":"-0.00156460000000","MEAN_MOTION_DOT":"-0.00025112","ECCENTRICITY":"0.00016760","SITE":"AFETR","TLE_LINE1":"1 52110U 22029Y   22257.91667824 -.00025112  00000-0 -15646-2 0  9992","INCLINATION":"53.2165","CLASSIFICATION_TYPE":"U","COUNTRY_CODE":"US","EPHEMERIS_TYPE":"0","DECAY_DATE":null,"REF_FRAME":"TEME","RCS_SIZE":"LARGE","FILE":"3574287","MEAN_ELEMENT_THEORY":"SGP4","EPOCH":"2022-09-14T22:00:00.999936","REV_AT_EPOCH":"130","ARG_OF_PERICENTER":"57.4204","RA_OF_ASC_NODE":"28.3226","OBJECT_NAME":"STARLINK-3687","ELEMENT_SET_NO":"999","TLE_LINE2":"2 52110  53.2165  28.3226 0001676  57.4204 104.4708 15.08854702  1306","TIME_SYSTEM":"UTC","SEMIMAJOR_AXIS":"6917.835","OBJECT_ID":"2022-029Y","PERIOD":"95.437","MEAN_MOTION":"15.08854702","APOAPSIS":"540.860","CENTER_NAME":"EARTH","MEAN_ANOMALY":"104.4708","OBJECT_TYPE":"PAYLOAD","LAUNCH_DATE":"2022-03-19","NORAD_CAT_ID":"52110"},{"INCLINATION":"53.2188","ECCENTRICITY":"0.00015550","TLE_LINE1":"1 52111U 22029Z   22257.91667824 -.00033659  00000-0 -21060-2 0  9995","SITE":"AFETR","GP_ID":"212613480","PERIAPSIS":"538.635","MEAN_MOTION_DOT":"-0.00033659","BSTAR":"-0.00210600000000","MEAN_MOTION_DDOT":"0.0000000000000","OBJECT_NAME":"STARLINK-3708","ELEMENT_SET_NO":"999","RA_OF_ASC_NODE":"28.3275","ARG_OF_PERICENTER":"51.7278","REV_AT_EPOCH":"130","RCS_SIZE":"LARGE","REF_FRAME":"TEME","DECAY_DATE":null,"EPOCH":"2022-09-14T22:00:00.999936","FILE":"3574287","MEAN_ELEMENT_THEORY":"SGP4","CLASSIFICATION_TYPE":"U","COUNTRY_CODE":"US","EPHEMERIS_TYPE":"0","SEMIMAJOR_AXIS":"6917.846","OBJECT_ID":"2022-029Z","TLE_LINE2":"2 52111  53.2188  28.3275 0001555  51.7278 190.2296 15.08851209  1304","TIME_SYSTEM":"UTC","OBJECT_TYPE":"PAYLOAD","NORAD_CAT_ID":"52111","LAUNCH_DATE":"2022-03-19","MEAN_ANOMALY":"190.2296","MEAN_MOTION":"15.08851209","PERIOD":"95.437","CENTER_NAME":"EARTH","APOAPSIS":"540.787"},{"MEAN_MOTION_DDOT":"0.0000000000000","MEAN_MOTION_DOT":"0.00012579","BSTAR":"0.00080703000000","GP_ID":"212613228","PERIAPSIS":"538.616","TLE_LINE1":"1 52112U 22029AA  22257.91667824  .00012579  00000-0  80703-3 0  9992","SITE":"AFETR","ECCENTRICITY":"0.00016310","INCLINATION":"53.2171","EPHEMERIS_TYPE":"0","COUNTRY_CODE":"US","CLASSIFICATION_TYPE":"U","EPOCH":"2022-09-14T22:00:00.999936","MEAN_ELEMENT_THEORY":"SGP4","FILE":"3574287","RCS_SIZE":"LARGE","DECAY_DATE":null,"REF_FRAME":"TEME","REV_AT_EPOCH":"130","RA_OF_ASC_NODE":"28.3221","ARG_OF_PERICENTER":"56.6526","ELEMENT_SET_NO":"999","OBJECT_NAME":"STARLINK-3734","TIME_SYSTEM":"UTC","TLE_LINE2":"2 52112  53.2171  28.3221 0001631  56.6526 145.2766 15.08840194  1306","SEMIMAJOR_AXIS":"6917.880","OBJECT_ID":"2022-029AA","APOAPSIS":"540.873","CENTER_NAME":"EARTH","MEAN_MOTION":"15.08840194","PERIOD":"95.438","MEAN_ANOMALY":"145.2766","NORAD_CAT_ID":"52112","LAUNCH_DATE":"2022-03-19","OBJECT_TYPE":"PAYLOAD"},{"BSTAR":"0.00039791000000","MEAN_MOTION_DOT":"0.00006049","GP_ID":"212613979","PERIAPSIS":"538.653","MEAN_MOTION_DDOT":"0.0000000000000","INCLINATION":"53.2184","SITE":"AFETR","TLE_LINE1":"1 52113U 22029AB  22257.91667824  .00006049  00000-0  39791-3 0  9999","ECCENTRICITY":"0.00016210","MEAN_ELEMENT_THEORY":"SGP4","FILE":"3574287","EPOCH":"2022-09-14T22:00:00.999936","DECAY_DATE":null,"REF_FRAME":"TEME","RCS_SIZE":"LARGE","COUNTRY_CODE":"US","EPHEMERIS_TYPE":"0","CLASSIFICATION_TYPE":"U","ELEMENT_SET_NO":"999","OBJECT_NAME":"STARLINK-3736","RA_OF_ASC_NODE":"28.3187","ARG_OF_PERICENTER":"55.5562","REV_AT_EPOCH":"130","OBJECT_ID":"2022-029AB","SEMIMAJOR_AXIS":"6917.909","TLE_LINE2":"2 52113  53.2184  28.3187 0001621  55.5562 226.3822 15.08830638  1305","TIME_SYSTEM":"UTC","CENTER_NAME":"EARTH","APOAPSIS":"540.895","PERIOD":"95.438","MEAN_MOTION":"15.08830638","LAUNCH_DATE":"2022-03-19","NORAD_CAT_ID":"52113","OBJECT_TYPE":"PAYLOAD","MEAN_ANOMALY":"226.3822"},{"SEMIMAJOR_AXIS":"6917.887","OBJECT_ID":"2022-029AC","TIME_SYSTEM":"UTC","TLE_LINE2":"2 52114  53.2180  28.3246 0001700  52.6596 169.2692 15.08837687  1302","CENTER_NAME":"EARTH","APOAPSIS":"540.928","MEAN_MOTION":"15.08837687","PERIOD":"95.438","NORAD_CAT_ID":"52114","LAUNCH_DATE":"2022-03-19","OBJECT_TYPE":"PAYLOAD","MEAN_ANOMALY":"169.2692","MEAN_MOTION_DOT":"0.00009934","BSTAR":"0.00064138000000","PERIAPSIS":"538.576","GP_ID":"212614221","MEAN_MOTION_DDOT":"0.0000000000000","INCLINATION":"53.2180","TLE_LINE1":"1 52114U 22029AC  22257.91667824  .00009934  00000-0  64138-3 0  9999","SITE":"AFETR","ECCENTRICITY":"0.00017000","EPOCH":"2022-09-14T22:00:00.999936","MEAN_ELEMENT_THEORY":"SGP4","FILE":"3574287","RCS_SIZE":"LARGE","REF_FRAME":"TEME","DECAY_DATE":null,"EPHEMERIS_TYPE":"0","COUNTRY_CODE":"US","CLASSIFICATION_TYPE":"U","ELEMENT_SET_NO":"999","OBJECT_NAME":"STARLINK-3737","RA_OF_ASC_NODE":"28.3246","ARG_OF_PERICENTER":"52.6596","REV_AT_EPOCH":"130"},{"CENTER_NAME":"EARTH","APOAPSIS":"540.881","MEAN_MOTION":"15.08834374","PERIOD":"95.438","NORAD_CAT_ID":"52115","LAUNCH_DATE":"2022-03-19","OBJECT_TYPE":"PAYLOAD","MEAN_ANOMALY":"265.3378","OBJECT_ID":"2022-029AD","SEMIMAJOR_AXIS":"6917.898","TLE_LINE2":"2 52115  53.2204  28.3261 0001616  56.6014 265.3378 15.08834374  1301","TIME_SYSTEM":"UTC","EPOCH":"2022-09-14T22:00:00.999936","MEAN_ELEMENT_THEORY":"SGP4","FILE":"3574287","RCS_SIZE":"LARGE","DECAY_DATE":null,"REF_FRAME":"TEME","EPHEMERIS_TYPE":"0","COUNTRY_CODE":"US","CLASSIFICATION_TYPE":"U","ELEMENT_SET_NO":"999","OBJECT_NAME":"STARLINK-3685","RA_OF_ASC_NODE":"28.3261","ARG_OF_PERICENTER":"56.6014","REV_AT_EPOCH":"130","MEAN_MOTION_DOT":"0.00008066","BSTAR":"0.00052437000000","PERIAPSIS":"538.645","GP_ID":"212612981","MEAN_MOTION_DDOT":"0.0000000000000","INCLINATION":"53.2204","TLE_LINE1":"1 52115U 22029AD  22257.91667824  .00008066  00000-0  52437-3 0  9994","SITE":"AFETR","ECCENTRICITY":"0.00016160"},{"EPOCH":"2022-09-14T22:00:00.999936","FILE":"3574287","MEAN_ELEMENT_THEORY":"SGP4","RCS_SIZE":"LARGE","REF_FRAME":"TEME","DECAY_DATE":null,"EPHEMERIS_TYPE":"0","COUNTRY_CODE":"US","CLASSIFICATION_TYPE":"U","ELEMENT_SET_NO":"999","OBJECT_NAME":"STARLINK-3735","ARG_OF_PERICENTER":"58.5752","REV_AT_EPOCH":"130","RA_OF_ASC_NODE":"28.3228","MEAN_MOTION_DOT":"0.00008690","BSTAR":"0.00056356000000","PERIAPSIS":"538.651","GP_ID":"212613728","MEAN_MOTION_DDOT":"0.0000000000000","INCLINATION":"53.2191","TLE_LINE1":"1 52116U 22029AE  22257.91667824  .00008690  00000-0  56356-3 0  9992","SITE":"AFETR","ECCENTRICITY":"0.00016250","CENTER_NAME":"EARTH","APOAPSIS":"540.899","MEAN_MOTION":"15.08830297","PERIOD":"95.438","NORAD_CAT_ID":"52116","LAUNCH_DATE":"2022-03-19","OBJECT_TYPE":"PAYLOAD","MEAN_ANOMALY":"203.3570","OBJECT_ID":"2022-029AE","SEMIMAJOR_AXIS":"6917.910","TIME_SYSTEM":"UTC","TLE_LINE2":"2 52116  53.2191  28.3228 0001625  58.5752 203.3570 15.08830297  1306"},{"ECCENTRICITY":"0.00016960","SITE":"AFETR","TLE_LINE1":"1 52117U 22029AF  22257.91667824  .00008866  00000-0  57457-3 0  9991","INCLINATION":"53.2197","MEAN_MOTION_DDOT":"0.0000000000000","GP_ID":"212614479","PERIAPSIS":"538.603","BSTAR":"0.00057457000000","MEAN_MOTION_DOT":"0.00008866","ARG_OF_PERICENTER":"41.9009","RA_OF_ASC_NODE":"28.3237","REV_AT_EPOCH":"130","OBJECT_NAME":"STARLINK-3738","ELEMENT_SET_NO":"999","CLASSIFICATION_TYPE":"U","COUNTRY_CODE":"US","EPHEMERIS_TYPE":"0","REF_FRAME":"TEME","DECAY_DATE":null,"RCS_SIZE":"LARGE","MEAN_ELEMENT_THEORY":"SGP4","FILE":"3574287","EPOCH":"2022-09-14T22:00:00.999936","TIME_SYSTEM":"UTC","TLE_LINE2":"2 52117  53.2197  28.3237 0001696  41.9009 320.0688 15.08829912  1301","OBJECT_ID":"2022-029AF","SEMIMAJOR_AXIS":"6917.911","MEAN_ANOMALY":"320.0688","OBJECT_TYPE":"PAYLOAD","LAUNCH_DATE":"2022-03-19","NORAD_CAT_ID":"52117","PERIOD":"95.438","MEAN_MOTION":"15.08829912","CENTER_NAME":"EARTH","APOAPSIS":"540.950"},{"GP_ID":"212614721","PERIAPSIS":"538.606","BSTAR":"0.00037930000000","MEAN_MOTION_DOT":"0.00005752","MEAN_MOTION_DDOT":"0.0000000000000","INCLINATION":"53.2186","ECCENTRICITY":"0.00016860","SITE":"AFETR","TLE_LINE1":"1 52118U 22029AG  22257.91667824  .00005752  00000-0  37930-3 0  9997","REF_FRAME":"TEME","DECAY_DATE":null,"RCS_SIZE":"LARGE","MEAN_ELEMENT_THEORY":"SGP4","FILE":"3574287","EPOCH":"2022-09-14T22:00:00.999936","CLASSIFICATION_TYPE":"U","COUNTRY_CODE":"US","EPHEMERIS_TYPE":"0","OBJECT_NAME":"STARLINK-3743","ELEMENT_SET_NO":"999","ARG_OF_PERICENTER":"50.7280","RA_OF_ASC_NODE":"28.3188","REV_AT_EPOCH":"130","OBJECT_ID":"2022-029AG","SEMIMAJOR_AXIS":"6917.907","TLE_LINE2":"2 52118  53.2186  28.3188 0001686  50.7280 251.2020 15.08831224  1307","TIME_SYSTEM":"UTC","PERIOD":"95.438","MEAN_MOTION":"15.08831224","APOAPSIS":"540.939","CENTER_NAME":"EARTH","OBJECT_TYPE":"PAYLOAD","LAUNCH_DATE":"2022-03-19","NORAD_CAT_ID":"52118","MEAN_ANOMALY":"251.2020"},{"RA_OF_ASC_NODE":"28.3227","ARG_OF_PERICENTER":"51.8384","REV_AT_EPOCH":"130","ELEMENT_SET_NO":"999","OBJECT_NAME":"STARLINK-3558","EPHEMERIS_TYPE":"0","COUNTRY_CODE":"US","CLASSIFICATION_TYPE":"U","MEAN_ELEMENT_THEORY":"SGP4","FILE":"3574287","EPOCH":"2022-09-14T22:00:00.999936","DECAY_DATE":null,"REF_FRAME":"TEME","RCS_SIZE":"LARGE","SITE":"AFETR","TLE_LINE1":"1 52119U 22029AH  22257.91667824 -.00032744  00000-0 -20480-2 0  9992","ECCENTRICITY":"0.00017310","INCLINATION":"53.2192","MEAN_MOTION_DDOT":"0.0000000000000","BSTAR":"-0.00204800000000","MEAN_MOTION_DOT":"-0.00032744","GP_ID":"212613481","PERIAPSIS":"538.514","MEAN_ANOMALY":"350.1389","LAUNCH_DATE":"2022-03-19","NORAD_CAT_ID":"52119","OBJECT_TYPE":"PAYLOAD","CENTER_NAME":"EARTH","APOAPSIS":"540.909","PERIOD":"95.437","MEAN_MOTION":"15.08851108","TLE_LINE2":"2 52119  53.2192  28.3227 0001731  51.8384 350.1389 15.08851108  1307","TIME_SYSTEM":"UTC","OBJECT_ID":"2022-029AH","SEMIMAJOR_AXIS":"6917.846"}];
